[{"OBJECT_NAME":"STARLINK-36213","OBJECT_ID":"2025-304W","EPOCH":"2026-03-09T17:36:08.078112","MEAN_MOTION":14.98333555,"ECCENTRICITY":0.00026387,"INCLINATION":70.0025,"RA_OF_ASC_NODE":174.2497,"ARG_OF_PERICENTER":272.6683,"MEAN_ANOMALY":87.4174,"EPHEMERIS_TYPE":0,"CLASSIFICATION_TYPE":"U","NORAD_CAT_ID":67212,"ELEMENT_SET_NO":999,"REV_AT_EPOCH":1389,"BSTAR":0.00042942824,"MEAN_MOTION_DOT":5.035e-5,"MEAN_MOTION_DDOT":0},{"OBJECT_NAME":"SL-8 DEB","OBJECT_ID":"1972-043D","EPOCH":"2026-03-09T22:05:55.512096","MEAN_MOTION":15.0117212,"ECCENTRICITY":0.00057803,"INCLINATION":74.0604,"RA_OF_ASC_NODE":30.4168,"ARG_OF_PERICENTER":131.677,"MEAN_ANOMALY":228.4914,"EPHEMERIS_TYPE":0,"CLASSIFICATION_TYPE":"U","NORAD_CAT_ID":6065,"ELEMENT_SET_NO":999,"REV_AT_EPOCH":84295,"BSTAR":0.0010977341,"MEAN_MOTION_DOT":0.00014073,"MEAN_MOTION_DDOT":0}]
